[{"OBJECT_NAME":"ALOS (DAICHI)","OBJECT_ID":"2006-002A","EPOCH":"2026-03-24T09:52:36.002784","MEAN_MOTION":14.69853326,"ECCENTRICITY":7.26e-5,"INCLINATION":98.1242,"RA_OF_ASC_NODE":39.2957,"ARG_OF_PERICENTER":97.0776,"MEAN_ANOMALY":263.0512,"EPHEMERIS_TYPE":0,"CLASSIFICATION_TYPE":"U","NORAD_CAT_ID":28931,"ELEMENT_SET_NO":999,"REV_AT_EPOCH":7564,"BSTAR":0.00023579,"MEAN_MOTION_DOT":1.36e-5,"MEAN_MOTION_DDOT":0},{"OBJECT_NAME":"H-2A R/B","OBJECT_ID":"2006-002B","EPOCH":"2026-03-24T09:19:30.122112","MEAN_MOTION":15.16735733,"ECCENTRICITY":0.0052301,"INCLINATION":98.2441,"RA_OF_ASC_NODE":231.682,"ARG_OF_PERICENTER":190.5744,"MEAN_ANOMALY":169.4392,"EPHEMERIS_TYPE":0,"CLASSIFICATION_TYPE":"U","NORAD_CAT_ID":28932,"ELEMENT_SET_NO":999,"REV_AT_EPOCH":9666,"BSTAR":0.00046267,"MEAN_MOTION_DOT":9.32e-5,"MEAN_MOTION_DDOT":0},{"OBJECT_NAME":"RESURS-DK 1","OBJECT_ID":"2006-021A","EPOCH":"2026-03-24T09:54:30.219264","MEAN_MOTION":15.12839433,"ECCENTRICITY":7.56e-5,"INCLINATION":69.9339,"RA_OF_ASC_NODE":198.9368,"ARG_OF_PERICENTER":83.208,"MEAN_ANOMALY":276.9172,"EPHEMERIS_TYPE":0,"CLASSIFICATION_TYPE":"U","NORAD_CAT_ID":29228,"ELEMENT_SET_NO":999,"REV_AT_EPOCH":8975,"BSTAR":0.00015075,"MEAN_MOTION_DOT":2.549e-5,"MEAN_MOTION_DDOT":0},{"OBJECT_NAME":"CZ-4B R/B","OBJECT_ID":"2006-046C","EPOCH":"2026-03-24T09:14:08.555136","MEAN_MOTION":15.17049924,"ECCENTRICITY":0.0032309,"INCLINATION":97.5564,"RA_OF_ASC_NODE":128.2537,"ARG_OF_PERICENTER":214.2224,"MEAN_ANOMALY":145.6927,"EPHEMERIS_TYPE":0,"CLASSIFICATION_TYPE":"U","NORAD_CAT_ID":29507,"ELEMENT_SET_NO":999,"REV_AT_EPOCH":6227,"BSTAR":0.00023281,"MEAN_MOTION_DOT":4.597e-5,"MEAN_MOTION_DDOT":0},{"OBJECT_NAME":"CZ-2C R/B","OBJECT_ID":"2007-010B","EPOCH":"2026-03-24T07:25:05.418336","MEAN_MOTION":14.20251257,"ECCENTRICITY":0.0057928,"INCLINATION":98.3994,"RA_OF_ASC_NODE":195.8562,"ARG_OF_PERICENTER":251.2653,"MEAN_ANOMALY":108.2233,"EPHEMERIS_TYPE":0,"CLASSIFICATION_TYPE":"U","NORAD_CAT_ID":31114,"ELEMENT_SET_NO":999,"REV_AT_EPOCH":98179,"BSTAR":7.9936e-5,"MEAN_MOTION_DOT":1.32e-6,"MEAN_MOTION_DDOT":0},{"OBJECT_NAME":"COSMO-SKYMED 1","OBJECT_ID":"2007-023A","EPOCH":"2026-03-24T12:10:33.095136","MEAN_MOTION":14.96641926,"ECCENTRICITY":0.000104,"INCLINATION":97.888,"RA_OF_ASC_NODE":274.6602,"ARG_OF_PERICENTER":88.4618,"MEAN_ANOMALY":271.6722,"EPHEMERIS_TYPE":0,"CLASSIFICATION_TYPE":"U","NORAD_CAT_ID":31598,"ELEMENT_SET_NO":999,"REV_AT_EPOCH":1712,"BSTAR":0.00023479,"MEAN_MOTION_DOT":2.617e-5,"MEAN_MOTION_DDOT":0},{"OBJECT_NAME":"COSMOS 2428","OBJECT_ID":"2007-029A","EPOCH":"2026-03-24T13:02:17.575008","MEAN_MOTION":14.12948013,"ECCENTRICITY":0.0009633,"INCLINATION":70.9441,"RA_OF_ASC_NODE":172.169,"ARG_OF_PERICENTER":261.8574,"MEAN_ANOMALY":98.1454,"EPHEMERIS_TYPE":0,"CLASSIFICATION_TYPE":"U","NORAD_CAT_ID":31792,"ELEMENT_SET_NO":999,"REV_AT_EPOCH":96619,"BSTAR":1.756e-5,"MEAN_MOTION_DOT":-1.5e-7,"MEAN_MOTION_DDOT":0},{"OBJECT_NAME":"SL-16 R/B","OBJECT_ID":"2007-029B","EPOCH":"2026-03-24T09:37:19.293600","MEAN_MOTION":14.14841997,"ECCENTRICITY":0.0002529,"INCLINATION":70.9755,"RA_OF_ASC_NODE":141.4622,"ARG_OF_PERICENTER":276.9613,"MEAN_ANOMALY":93.858,"EPHEMERIS_TYPE":0,"CLASSIFICATION_TYPE":"U","NORAD_CAT_ID":31793,"ELEMENT_SET_NO":999,"REV_AT_EPOCH":96745,"BSTAR":0.00013199,"MEAN_MOTION_DOT":2.07e-6,"MEAN_MOTION_DDOT":0},{"OBJECT_NAME":"KORONAS-FOTON","OBJECT_ID":"2009-003A","EPOCH":"2026-03-24T13:05:32.430336","MEAN_MOTION":15.43705087,"ECCENTRICITY":0.0011812,"INCLINATION":82.4279,"RA_OF_ASC_NODE":260.4257,"ARG_OF_PERICENTER":101.5206,"MEAN_ANOMALY":258.7369,"EPHEMERIS_TYPE":0,"CLASSIFICATION_TYPE":"U","NORAD_CAT_ID":33504,"ELEMENT_SET_NO":999,"REV_AT_EPOCH":94803,"BSTAR":0.00029547,"MEAN_MOTION_DOT":0.00013406,"MEAN_MOTION_DDOT":0},{"OBJECT_NAME":"CZ-2C R/B","OBJECT_ID":"2011-030B","EPOCH":"2026-03-24T09:58:51.859200","MEAN_MOTION":14.81272777,"ECCENTRICITY":0.0051295,"INCLINATION":97.857,"RA_OF_ASC_NODE":40.387,"ARG_OF_PERICENTER":303.5053,"MEAN_ANOMALY":171.5301,"EPHEMERIS_TYPE":0,"CLASSIFICATION_TYPE":"U","NORAD_CAT_ID":37731,"ELEMENT_SET_NO":999,"REV_AT_EPOCH":79227,"BSTAR":0.00019688,"MEAN_MOTION_DOT":1.514e-5,"MEAN_MOTION_DDOT":0},{"OBJECT_NAME":"H-2A R/B","OBJECT_ID":"2012-025E","EPOCH":"2026-03-24T09:13:09.588864","MEAN_MOTION":14.95266917,"ECCENTRICITY":0.0042784,"INCLINATION":98.4757,"RA_OF_ASC_NODE":51.6101,"ARG_OF_PERICENTER":264.4745,"MEAN_ANOMALY":95.1592,"EPHEMERIS_TYPE":0,"CLASSIFICATION_TYPE":"U","NORAD_CAT_ID":38341,"ELEMENT_SET_NO":999,"REV_AT_EPOCH":75041,"BSTAR":0.0003077,"MEAN_MOTION_DOT":3.379e-5,"MEAN_MOTION_DDOT":0},{"OBJECT_NAME":"SHIJIAN-16 (SJ-16)","OBJECT_ID":"2013-057A","EPOCH":"2026-03-24T12:16:20.654688","MEAN_MOTION":14.92405904,"ECCENTRICITY":0.0015203,"INCLINATION":74.9728,"RA_OF_ASC_NODE":157.0309,"ARG_OF_PERICENTER":74.1427,"MEAN_ANOMALY":286.1436,"EPHEMERIS_TYPE":0,"CLASSIFICATION_TYPE":"U","NORAD_CAT_ID":39358,"ELEMENT_SET_NO":999,"REV_AT_EPOCH":67371,"BSTAR":9.0458e-5,"MEAN_MOTION_DOT":8.99e-6,"MEAN_MOTION_DDOT":0},{"OBJECT_NAME":"SL-4 R/B","OBJECT_ID":"2014-021B","EPOCH":"2026-03-24T11:52:26.775840","MEAN_MOTION":15.39670175,"ECCENTRICITY":0.0096145,"INCLINATION":51.6056,"RA_OF_ASC_NODE":265.0241,"ARG_OF_PERICENTER":156.9179,"MEAN_ANOMALY":203.6169,"EPHEMERIS_TYPE":0,"CLASSIFICATION_TYPE":"U","NORAD_CAT_ID":39679,"ELEMENT_SET_NO":999,"REV_AT_EPOCH":65855,"BSTAR":0.0003467,"MEAN_MOTION_DOT":0.00015939,"MEAN_MOTION_DDOT":0},{"OBJECT_NAME":"ALOS-2","OBJECT_ID":"2014-029A","EPOCH":"2026-03-24T12:43:30.679680","MEAN_MOTION":14.79431084,"ECCENTRICITY":0.0001818,"INCLINATION":97.9187,"RA_OF_ASC_NODE":181.9115,"ARG_OF_PERICENTER":106.3027,"MEAN_ANOMALY":253.8384,"EPHEMERIS_TYPE":0,"CLASSIFICATION_TYPE":"U","NORAD_CAT_ID":39766,"ELEMENT_SET_NO":999,"REV_AT_EPOCH":63906,"BSTAR":0.0002564,"MEAN_MOTION_DOT":1.862e-5,"MEAN_MOTION_DDOT":0},{"OBJECT_NAME":"YAOGAN-29","OBJECT_ID":"2015-069A","EPOCH":"2026-03-24T12:04:47.266176","MEAN_MOTION":14.83012845,"ECCENTRICITY":8.35e-5,"INCLINATION":98.0119,"RA_OF_ASC_NODE":111.9711,"ARG_OF_PERICENTER":12.2493,"MEAN_ANOMALY":347.874,"EPHEMERIS_TYPE":0,"CLASSIFICATION_TYPE":"U","NORAD_CAT_ID":41038,"ELEMENT_SET_NO":999,"REV_AT_EPOCH":55807,"BSTAR":0.00013167,"MEAN_MOTION_DOT":1.016e-5,"MEAN_MOTION_DDOT":0},{"OBJECT_NAME":"ASTRO-H (HITOMI)","OBJECT_ID":"2016-012A","EPOCH":"2026-03-24T12:09:42.215040","MEAN_MOTION":15.10094818,"ECCENTRICITY":0.0009599,"INCLINATION":30.9988,"RA_OF_ASC_NODE":260.9233,"ARG_OF_PERICENTER":120.5372,"MEAN_ANOMALY":239.6214,"EPHEMERIS_TYPE":0,"CLASSIFICATION_TYPE":"U","NORAD_CAT_ID":41337,"ELEMENT_SET_NO":999,"REV_AT_EPOCH":55447,"BSTAR":0.00016834,"MEAN_MOTION_DOT":2.907e-5,"MEAN_MOTION_DDOT":0},{"OBJECT_NAME":"HXMT (HUIYAN)","OBJECT_ID":"2017-034A","EPOCH":"2026-03-24T12:30:13.324320","MEAN_MOTION":15.17651305,"ECCENTRICITY":0.0032474,"INCLINATION":43.0145,"RA_OF_ASC_NODE":294.2061,"ARG_OF_PERICENTER":326.3827,"MEAN_ANOMALY":33.4961,"EPHEMERIS_TYPE":0,"CLASSIFICATION_TYPE":"U","NORAD_CAT_ID":42758,"ELEMENT_SET_NO":999,"REV_AT_EPOCH":48479,"BSTAR":0.00025804,"MEAN_MOTION_DOT":5.12e-5,"MEAN_MOTION_DDOT":0}]
